OBJECT_NAME,OBJECT_ID,EPOCH,MEAN_MOTION,ECCENTRICITY,INCLINATION,RA_OF_ASC_NODE,ARG_OF_PERICENTER,MEAN_ANOMALY,EPHEMERIS_TYPE,CLASSIFICATION_TYPE,NORAD_CAT_ID,ELEMENT_SET_NO,REV_AT_EPOCH,BSTAR,MEAN_MOTION_DOT,MEAN_MOTION_DDOT
STARLINK-37938,2026-135Y,2026-07-13T14:00:01.000224,15.49191463,.00014799,97.2837,222.9793,103.6783,146.5664,0,U,69568,999,555,.64561894E-3,.35183E-3,0
STARLINK-37924,2026-135Z,2026-07-13T14:00:01.000224,15.52366252,.00022656,97.2845,223.0765,92.2393,17.2969,0,U,69569,999,555,-.53541262E-1,-.284448E-1,0
SHIJIAN-31 (SJ-31),2026-136A,2026-07-13T12:08:23.248896,1.92227787,.6940088,63.4867,353.3689,171.8375,212.2965,0,U,69570,999,59,0,-.478E-5,0
CZ-3B R/B,2026-136B,2026-07-12T19:04:46.303104,2.37752219,.72591248,63.4312,350.9647,171.4997,216.3948,0,U,69571,999,62,.55612555E-3,.377764E-2,-.156161E-6
GUOWANG OBJECT A,2026-137A,2026-07-12T21:25:09.001056,13.89812741,.0012495,49.9997,153.0717,311.3863,48.5960,0,U,69572,999,359,.2450247E-5,-.143E-5,0
GUOWANG OBJECT B,2026-137B,2026-07-09T15:41:33.480672,13.89803849,.00118595,50.0016,165.9303,298.8434,61.1273,0,U,69573,999,315,-.55136387E-4,-.214E-5,0
GUOWANG OBJECT C,2026-137C,2026-07-12T21:19:24.187296,13.89814739,.0011896,49.9967,153.0345,311.4365,48.5511,0,U,69574,999,360,-.2748005E-4,-.18E-5,0
GUOWANG OBJECT D,2026-137D,2026-07-09T15:38:20.572800,13.89827781,.00110869,49.9953,165.9027,299.2996,60.6794,0,U,69575,999,315,-.17667174E-4,-.168E-5,0
GUOWANG OBJECT E,2026-137E,2026-07-12T00:33:49.286304,13.89824941,.00112248,50.0038,156.4799,310.0552,49.9361,0,U,69576,999,348,-.46562868E-4,-.204E-5,0
GUOWANG OBJECT F,2026-137F,2026-07-11T07:17:14.089920,13.89809360,.00108344,50.0028,159.3340,307.7048,52.2867,0,U,69577,999,338,-.46814787E-4,-.204E-5,0
GUOWANG OBJECT G,2026-137G,2026-07-11T07:16:00.337152,13.89795025,.0010806,49.9952,159.3085,307.5258,52.4657,0,U,69578,999,338,.35461E-5,-.142E-5,0
GUOWANG OBJECT H,2026-137H,2026-07-10T00:11:03.674688,13.89776278,.00102494,50.0012,164.4679,306.3680,53.6272,0,U,69579,999,320,-.23862216E-4,-.175E-5,0
GUOWANG OBJECT J,2026-137J,2026-06-27T06:41:01.268160,13.91997107,.0011832,49.9961,215.0979,257.3150,102.6427,0,U,69580,999,143,.13174E-3,.22E-6,0
CZ-12 R/B,2026-137K,2026-07-13T06:43:04.828800,14.11694334,.0077441,49.9888,147.7098,203.1402,156.6010,0,U,69581,999,369,.22245E-4,-.112E-5,0
CENTISPACE-1 GROUP 05 OBJECT A,2026-138A,2026-07-13T08:11:08.213856,14.15470945,.00113082,55.1388,184.5993,340.3719,19.6818,0,U,69582,999,372,.51929226E-4,-.52E-6,0
CENTISPACE-1 GROUP 05 OBJECT B,2026-138B,2026-07-13T11:29:39.475104,14.15650579,.00102958,55.1382,184.0587,341.1535,18.9057,0,U,69583,999,374,.4298808E-5,-.145E-5,0
CENTISPACE-1 GROUP 05 OBJECT C,2026-138C,2026-07-13T11:27:23.172192,14.15734094,.00102279,55.1387,184.0592,342.7982,17.2644,0,U,69584,999,374,-.21642051E-4,-.196E-5,0
CENTISPACE-1 GROUP 05 OBJECT D,2026-138D,2026-07-13T11:22:41.050272,14.15919525,.0009819,55.1385,184.0335,342.0163,18.0463,0,U,69585,999,374,-.74601835E-4,-.301E-5,0
CENTISPACE-1 GROUP 05 OBJECT E,2026-138E,2026-07-12T23:29:19.337856,14.15986721,.00095001,55.1377,185.8600,341.3569,18.7056,0,U,69586,999,367,-.81159363E-4,-.314E-5,0
CENTISPACE-1 GROUP 05 OBJECT F,2026-138F,2026-07-12T23:31:05.217600,14.15909909,.00094364,55.1382,185.8680,345.5018,14.5684,0,U,69587,999,367,-.69904551E-4,-.292E-5,0
CENTISPACE-1 GROUP 05 OBJECT G,2026-138G,2026-07-12T09:53:32.912736,14.16073930,.00086294,55.1383,187.9363,344.0005,16.0696,0,U,69588,999,359,-.11166998E-3,-.375E-5,0
SPACEMOBILE-008,2026-139A,2026-07-13T05:41:11.027616,15.12800584,.000499,52.9945,144.2981,51.8250,308.3190,0,U,69589,999,392,.10367E-4,-.117E-5,0
SPACEMOBILE-009,2026-139B,2026-07-13T12:04:22.504800,15.12694011,.00052471,52.9937,143.1044,48.2682,311.8757,0,U,69590,999,396,.10567857E-4,-.114E-5,0
SPACEMOBILE-010,2026-139C,2026-07-13T05:47:58.811424,15.12525408,.0005157,52.9943,144.3248,39.4417,320.6949,0,U,69591,999,393,.15486E-4,-.28E-6,0
KUIPER-00423,2026-140A,2026-07-13T10:17:28.578336,15.38591813,.00135947,51.8805,271.6051,261.6065,98.3381,0,U,69592,999,527,.42113718E-3,.15983E-3,0
KUIPER-00428,2026-140B,2026-07-13T12:43:58.700928,15.36931277,.0007774,51.8807,271.5302,25.8270,334.3103,0,U,69593,999,528,.31039589E-3,.11019E-3,0
KUIPER-00481,2026-140C,2026-07-13T13:39:48.307968,15.37974349,.00100622,51.8769,271.0439,276.0928,83.8913,0,U,69594,999,529,.88668556E-4,.2971E-4,0
KUIPER-00490,2026-140D,2026-07-13T13:53:46.413024,15.37933828,.00068533,51.8779,271.1008,335.4806,24.5854,0,U,69595,999,529,.23884172E-3,.867E-4,0
KUIPER-00493,2026-140E,2026-07-13T12:51:09.971712,15.36646865,.00078246,51.8809,271.5621,32.5326,327.6141,0,U,69596,999,528,.21645632E-3,.749E-4,0
KUIPER-00496,2026-140F,2026-07-13T13:22:19.754976,15.34279190,.00104565,51.8784,271.6947,44.1814,316.0005,0,U,69597,999,528,.30526889E-3,.9932E-4,0
